[{"OBJECT_NAME":"GLOBAL-2","OBJECT_ID":"2018-099BG","EPOCH":"2026-03-09T16:47:21.463008","MEAN_MOTION":15.08046936,"ECCENTRICITY":0.00074537,"INCLINATION":97.3697,"RA_OF_ASC_NODE":109.328,"ARG_OF_PERICENTER":127.1924,"MEAN_ANOMALY":232.9986,"EPHEMERIS_TYPE":0,"CLASSIFICATION_TYPE":"U","NORAD_CAT_ID":43812,"ELEMENT_SET_NO":999,"REV_AT_EPOCH":39691,"BSTAR":0.0002614533,"MEAN_MOTION_DOT":3.97e-5,"MEAN_MOTION_DDOT":0},{"OBJECT_NAME":"STARLINK-34947","OBJECT_ID":"2025-175L","EPOCH":"2026-03-09T15:35:16.089792","MEAN_MOTION":15.05625753,"ECCENTRICITY":0.0002568,"INCLINATION":97.6043,"RA_OF_ASC_NODE":302.6094,"ARG_OF_PERICENTER":46.3201,"MEAN_ANOMALY":313.8238,"EPHEMERIS_TYPE":0,"CLASSIFICATION_TYPE":"U","NORAD_CAT_ID":65184,"ELEMENT_SET_NO":999,"REV_AT_EPOCH":3263,"BSTAR":0.00036723,"MEAN_MOTION_DOT":5.239e-5,"MEAN_MOTION_DDOT":0}]
