GLOBAL-2                
1 43812U 18099BG  26068.69955396  .00003970  00000+0  26145-3 0  9998
2 43812  97.3697 109.3280 0007454 127.1924 232.9986 15.08046936396919
STARLINK-34947          
1 65184U 25175L   26068.64949178  .00005239  00000+0  36723-3 0  9996
2 65184  97.6043 302.6094 0002568  46.3201 313.8238 15.05625753 32637
